CCSDS_OMM_VERS = 2.0
CREATION_DATE  = 
ORIGINATOR     = 

OBJECT_NAME    = SL-16 R/B
OBJECT_ID      = 1993-016B
CENTER_NAME    = EARTH
REF_FRAME      = TEME
TIME_SYSTEM    = UTC
MEAN_ELEMENT_THEORY = SGP/SGP4

EPOCH          = 2025-12-21T19:44:35.390112
MEAN_MOTION    = 14.15290365
ECCENTRICITY   = .0008029
INCLINATION    = 71.0081
RA_OF_ASC_NODE = 18.7269
ARG_OF_PERICENTER = 79.6367
MEAN_ANOMALY   = 280.5661

EPHEMERIS_TYPE = 0
CLASSIFICATION_TYPE = U
NORAD_CAT_ID   = 22566
ELEMENT_SET_NO = 999
REV_AT_EPOCH   = 69115
BSTAR          = .18911E-3
MEAN_MOTION_DOT = .321E-5
MEAN_MOTION_DDOT = 0

CCSDS_OMM_VERS = 2.0
CREATION_DATE  = 
ORIGINATOR     = 

OBJECT_NAME    = COSMOS 2242
OBJECT_ID      = 1993-024A
CENTER_NAME    = EARTH
REF_FRAME      = TEME
TIME_SYSTEM    = UTC
MEAN_ELEMENT_THEORY = SGP/SGP4

EPOCH          = 2025-12-21T11:08:16.434240
MEAN_MOTION    = 14.96138900
ECCENTRICITY   = .00155371
INCLINATION    = 82.5186
RA_OF_ASC_NODE = 341.5053
ARG_OF_PERICENTER = 202.8193
MEAN_ANOMALY   = 157.2340

EPHEMERIS_TYPE = 0
CLASSIFICATION_TYPE = U
NORAD_CAT_ID   = 22626
ELEMENT_SET_NO = 999
REV_AT_EPOCH   = 76869
BSTAR          = .14438942E-3
MEAN_MOTION_DOT = .1654E-4
MEAN_MOTION_DDOT = 0

CCSDS_OMM_VERS = 2.0
CREATION_DATE  = 
ORIGINATOR     = 

OBJECT_NAME    = SL-16 R/B
OBJECT_ID      = 1993-059B
CENTER_NAME    = EARTH
REF_FRAME      = TEME
TIME_SYSTEM    = UTC
MEAN_ELEMENT_THEORY = SGP/SGP4

EPOCH          = 2025-12-21T21:47:12.905664
MEAN_MOTION    = 14.17213963
ECCENTRICITY   = .0018423
INCLINATION    = 70.9879
RA_OF_ASC_NODE = 175.1529
ARG_OF_PERICENTER = 322.7080
MEAN_ANOMALY   = 37.2763

EPHEMERIS_TYPE = 0
CLASSIFICATION_TYPE = U
NORAD_CAT_ID   = 22803
ELEMENT_SET_NO = 999
REV_AT_EPOCH   = 66851
BSTAR          = .11856E-3
MEAN_MOTION_DOT = .192E-5
MEAN_MOTION_DDOT = 0

CCSDS_OMM_VERS = 2.0
CREATION_DATE  = 
ORIGINATOR     = 

OBJECT_NAME    = ARIANE 40 R/B
OBJECT_ID      = 1993-061H
CENTER_NAME    = EARTH
REF_FRAME      = TEME
TIME_SYSTEM    = UTC
MEAN_ELEMENT_THEORY = SGP/SGP4

EPOCH          = 2025-12-22T04:27:01.298016
MEAN_MOTION    = 14.32807368
ECCENTRICITY   = .001139
INCLINATION    = 98.5064
RA_OF_ASC_NODE = 61.5431
ARG_OF_PERICENTER = 149.1208
MEAN_ANOMALY   = 211.0648

EPHEMERIS_TYPE = 0
CLASSIFICATION_TYPE = U
NORAD_CAT_ID   = 22830
ELEMENT_SET_NO = 999
REV_AT_EPOCH   = 68300
BSTAR          = .10098E-3
MEAN_MOTION_DOT = .232E-5
MEAN_MOTION_DDOT = 0

CCSDS_OMM_VERS = 2.0
CREATION_DATE  = 
ORIGINATOR     = 

OBJECT_NAME    = COSMOS 2278
OBJECT_ID      = 1994-023A
CENTER_NAME    = EARTH
REF_FRAME      = TEME
TIME_SYSTEM    = UTC
MEAN_ELEMENT_THEORY = SGP/SGP4

EPOCH          = 2025-12-22T02:00:39.877632
MEAN_MOTION    = 14.14348151
ECCENTRICITY   = .0007896
INCLINATION    = 71.0533
RA_OF_ASC_NODE = 337.4610
ARG_OF_PERICENTER = 163.0690
MEAN_ANOMALY   = 197.0698

EPHEMERIS_TYPE = 0
CLASSIFICATION_TYPE = U
NORAD_CAT_ID   = 23087
ELEMENT_SET_NO = 999
REV_AT_EPOCH   = 63383
BSTAR          = -.23169E-4
MEAN_MOTION_DOT = -.91E-6
MEAN_MOTION_DDOT = 0

CCSDS_OMM_VERS = 2.0
CREATION_DATE  = 
ORIGINATOR     = 

OBJECT_NAME    = SL-16 R/B
OBJECT_ID      = 1994-023B
CENTER_NAME    = EARTH
REF_FRAME      = TEME
TIME_SYSTEM    = UTC
MEAN_ELEMENT_THEORY = SGP/SGP4

EPOCH          = 2025-12-22T02:16:39.203616
MEAN_MOTION    = 14.15000892
ECCENTRICITY   = .0001914
INCLINATION    = 70.9986
RA_OF_ASC_NODE = 233.8403
ARG_OF_PERICENTER = 6.5850
MEAN_ANOMALY   = 353.5297

EPHEMERIS_TYPE = 0
CLASSIFICATION_TYPE = U
NORAD_CAT_ID   = 23088
ELEMENT_SET_NO = 999
REV_AT_EPOCH   = 63511
BSTAR          = -.96604E-4
MEAN_MOTION_DOT = -.235E-5
MEAN_MOTION_DDOT = 0

CCSDS_OMM_VERS = 2.0
CREATION_DATE  = 
ORIGINATOR     = 

OBJECT_NAME    = SL-16 R/B
OBJECT_ID      = 1994-074B
CENTER_NAME    = EARTH
REF_FRAME      = TEME
TIME_SYSTEM    = UTC
MEAN_ELEMENT_THEORY = SGP/SGP4

EPOCH          = 2025-12-22T01:40:17.467968
MEAN_MOTION    = 14.79299877
ECCENTRICITY   = .0007987
INCLINATION    = 97.7191
RA_OF_ASC_NODE = 25.0030
ARG_OF_PERICENTER = 110.2183
MEAN_ANOMALY   = 271.9520

EPHEMERIS_TYPE = 0
CLASSIFICATION_TYPE = U
NORAD_CAT_ID   = 23343
ELEMENT_SET_NO = 999
REV_AT_EPOCH   = 67577
BSTAR          = .66551E-4
MEAN_MOTION_DOT = .446E-5
MEAN_MOTION_DDOT = 0

CCSDS_OMM_VERS = 2.0
CREATION_DATE  = 
ORIGINATOR     = 

OBJECT_NAME    = SL-16 R/B
OBJECT_ID      = 1994-077B
CENTER_NAME    = EARTH
REF_FRAME      = TEME
TIME_SYSTEM    = UTC
MEAN_ELEMENT_THEORY = SGP/SGP4

EPOCH          = 2025-12-21T18:04:58.954368
MEAN_MOTION    = 14.15552875
ECCENTRICITY   = .000498
INCLINATION    = 70.9820
RA_OF_ASC_NODE = 156.4511
ARG_OF_PERICENTER = 278.1293
MEAN_ANOMALY   = 81.9265

EPHEMERIS_TYPE = 0
CLASSIFICATION_TYPE = U
NORAD_CAT_ID   = 23405
ELEMENT_SET_NO = 999
REV_AT_EPOCH   = 60520
BSTAR          = -.22339E-4
MEAN_MOTION_DOT = -.92E-6
MEAN_MOTION_DDOT = 0

CCSDS_OMM_VERS = 2.0
CREATION_DATE  = 
ORIGINATOR     = 

OBJECT_NAME    = ARIANE 40+ R/B
OBJECT_ID      = 1995-021B
CENTER_NAME    = EARTH
REF_FRAME      = TEME
TIME_SYSTEM    = UTC
MEAN_ELEMENT_THEORY = SGP/SGP4

EPOCH          = 2025-12-22T02:51:02.828736
MEAN_MOTION    = 14.39702300
ECCENTRICITY   = .0007007
INCLINATION    = 98.4639
RA_OF_ASC_NODE = 63.5942
ARG_OF_PERICENTER = 23.9391
MEAN_ANOMALY   = 36.2539

EPHEMERIS_TYPE = 0
CLASSIFICATION_TYPE = U
NORAD_CAT_ID   = 23561
ELEMENT_SET_NO = 999
REV_AT_EPOCH   = 60808
BSTAR          = .10858E-3
MEAN_MOTION_DOT = .296E-5
MEAN_MOTION_DDOT = 0

CCSDS_OMM_VERS = 2.0
CREATION_DATE  = 
ORIGINATOR     = 

OBJECT_NAME    = SL-16 R/B
OBJECT_ID      = 1995-058B
CENTER_NAME    = EARTH
REF_FRAME      = TEME
TIME_SYSTEM    = UTC
MEAN_ELEMENT_THEORY = SGP/SGP4

EPOCH          = 2025-12-22T04:20:04.266816
MEAN_MOTION    = 14.15482287
ECCENTRICITY   = .0014805
INCLINATION    = 71.0219
RA_OF_ASC_NODE = 342.9833
ARG_OF_PERICENTER = 242.9599
MEAN_ANOMALY   = 117.0014

EPHEMERIS_TYPE = 0
CLASSIFICATION_TYPE = U
NORAD_CAT_ID   = 23705
ELEMENT_SET_NO = 999
REV_AT_EPOCH   = 55688
BSTAR          = -.10217E-3
MEAN_MOTION_DOT = -.247E-5
MEAN_MOTION_DDOT = 0

CCSDS_OMM_VERS = 2.0
CREATION_DATE  = 
ORIGINATOR     = 

OBJECT_NAME    = SL-16 R/B
OBJECT_ID      = 1996-051B
CENTER_NAME    = EARTH
REF_FRAME      = TEME
TIME_SYSTEM    = UTC
MEAN_ELEMENT_THEORY = SGP/SGP4

EPOCH          = 2025-12-22T02:53:25.014624
MEAN_MOTION    = 14.12397350
ECCENTRICITY   = .0019484
INCLINATION    = 70.7595
RA_OF_ASC_NODE = 339.4274
ARG_OF_PERICENTER = 249.8605
MEAN_ANOMALY   = 110.0418

EPHEMERIS_TYPE = 0
CLASSIFICATION_TYPE = U
NORAD_CAT_ID   = 24298
ELEMENT_SET_NO = 999
REV_AT_EPOCH   = 51069
BSTAR          = .28286E-5
MEAN_MOTION_DOT = -.44E-6
MEAN_MOTION_DDOT = 0

CCSDS_OMM_VERS = 2.0
CREATION_DATE  = 
ORIGINATOR     = 

OBJECT_NAME    = ORBVIEW 2 (SEASTAR)
OBJECT_ID      = 1997-037A
CENTER_NAME    = EARTH
REF_FRAME      = TEME
TIME_SYSTEM    = UTC
MEAN_ELEMENT_THEORY = SGP/SGP4

EPOCH          = 2025-12-21T23:26:56.304384
MEAN_MOTION    = 14.35423409
ECCENTRICITY   = .0001311
INCLINATION    = 98.8462
RA_OF_ASC_NODE = 153.2843
ARG_OF_PERICENTER = 303.2772
MEAN_ANOMALY   = 56.8287

EPHEMERIS_TYPE = 0
CLASSIFICATION_TYPE = U
NORAD_CAT_ID   = 24883
ELEMENT_SET_NO = 999
REV_AT_EPOCH   = 49732
BSTAR          = .10581E-3
MEAN_MOTION_DOT = .257E-5
MEAN_MOTION_DDOT = 0

